<?xml version="1.0" encoding="UTF-8"?>
<kml xmlns="http://www.opengis.net/kml/2.2">
  <Document>
    <name>Bangrove</name>
    <description/>
    <Style id="poly-FFD600-5501-77-nodesc-normal">
      <LineStyle>
        <color>ff00d6ff</color>
        <width>5.501</width>
      </LineStyle>
      <PolyStyle>
        <color>4d00d6ff</color>
        <fill>1</fill>
        <outline>1</outline>
      </PolyStyle>
      <BalloonStyle>
        <text><![CDATA[<h3>$[name]</h3>]]></text>
      </BalloonStyle>
    </Style>
    <Style id="poly-FFD600-5501-77-nodesc-highlight">
      <LineStyle>
        <color>ff00d6ff</color>
        <width>8.2515</width>
      </LineStyle>
      <PolyStyle>
        <color>4d00d6ff</color>
        <fill>1</fill>
        <outline>1</outline>
      </PolyStyle>
      <BalloonStyle>
        <text><![CDATA[<h3>$[name]</h3>]]></text>
      </BalloonStyle>
    </Style>
    <StyleMap id="poly-FFD600-5501-77-nodesc">
      <Pair>
        <key>normal</key>
        <styleUrl>#poly-FFD600-5501-77-nodesc-normal</styleUrl>
      </Pair>
      <Pair>
        <key>highlight</key>
        <styleUrl>#poly-FFD600-5501-77-nodesc-highlight</styleUrl>
      </Pair>
    </StyleMap>
    <Style id="poly-FFD600-5601-77-nodesc-normal">
      <LineStyle>
        <color>ff00d6ff</color>
        <width>5.601</width>
      </LineStyle>
      <PolyStyle>
        <color>4d00d6ff</color>
        <fill>1</fill>
        <outline>1</outline>
      </PolyStyle>
      <BalloonStyle>
        <text><![CDATA[<h3>$[name]</h3>]]></text>
      </BalloonStyle>
    </Style>
    <Style id="poly-FFD600-5601-77-nodesc-highlight">
      <LineStyle>
        <color>ff00d6ff</color>
        <width>8.4015</width>
      </LineStyle>
      <PolyStyle>
        <color>4d00d6ff</color>
        <fill>1</fill>
        <outline>1</outline>
      </PolyStyle>
      <BalloonStyle>
        <text><![CDATA[<h3>$[name]</h3>]]></text>
      </BalloonStyle>
    </Style>
    <StyleMap id="poly-FFD600-5601-77-nodesc">
      <Pair>
        <key>normal</key>
        <styleUrl>#poly-FFD600-5601-77-nodesc-normal</styleUrl>
      </Pair>
      <Pair>
        <key>highlight</key>
        <styleUrl>#poly-FFD600-5601-77-nodesc-highlight</styleUrl>
      </Pair>
    </StyleMap>
    <Style id="poly-FFD600-6201-77-nodesc-normal">
      <LineStyle>
        <color>ff00d6ff</color>
        <width>6.201</width>
      </LineStyle>
      <PolyStyle>
        <color>4d00d6ff</color>
        <fill>1</fill>
        <outline>1</outline>
      </PolyStyle>
      <BalloonStyle>
        <text><![CDATA[<h3>$[name]</h3>]]></text>
      </BalloonStyle>
    </Style>
    <Style id="poly-FFD600-6201-77-nodesc-highlight">
      <LineStyle>
        <color>ff00d6ff</color>
        <width>9.3015</width>
      </LineStyle>
      <PolyStyle>
        <color>4d00d6ff</color>
        <fill>1</fill>
        <outline>1</outline>
      </PolyStyle>
      <BalloonStyle>
        <text><![CDATA[<h3>$[name]</h3>]]></text>
      </BalloonStyle>
    </Style>
    <StyleMap id="poly-FFD600-6201-77-nodesc">
      <Pair>
        <key>normal</key>
        <styleUrl>#poly-FFD600-6201-77-nodesc-normal</styleUrl>
      </Pair>
      <Pair>
        <key>highlight</key>
        <styleUrl>#poly-FFD600-6201-77-nodesc-highlight</styleUrl>
      </Pair>
    </StyleMap>
    <Folder>
      <name>Untitled layer</name>
      <Placemark>
        <name>Polygon 1</name>
        <styleUrl>#poly-FFD600-5601-77-nodesc</styleUrl>
        <Polygon>
          <outerBoundaryIs>
            <LinearRing>
              <tessellate>1</tessellate>
              <coordinates>
                0.82699,52.2995337,0
                0.8282989,52.2998617,0
                0.8275264,52.3029322,0
                0.826711,52.3028928,0
                0.826196,52.3023417,0
                0.82699,52.2995337,0
              </coordinates>
            </LinearRing>
          </outerBoundaryIs>
        </Polygon>
      </Placemark>
      <Placemark>
        <name>Polygon 3</name>
        <styleUrl>#poly-FFD600-5501-77-nodesc</styleUrl>
        <Polygon>
          <outerBoundaryIs>
            <LinearRing>
              <tessellate>1</tessellate>
              <coordinates>
                0.826196,52.2994287,0
                0.82699,52.2995337,0
                0.826196,52.3023417,0
                0.826711,52.3028928,0
                0.8270973,52.3029715,0
                0.8270543,52.3032077,0
                0.8265823,52.3031815,0
                0.8259171,52.3036013,0
                0.8252519,52.3028665,0
                0.825445,52.3017512,0
                0.825724,52.3015413,0
                0.8255523,52.3008196,0
                0.8254236,52.300216,0
                0.8258312,52.2999536,0
                0.826196,52.2994287,0
              </coordinates>
            </LinearRing>
          </outerBoundaryIs>
        </Polygon>
      </Placemark>
      <Placemark>
        <name>Polygon 5</name>
        <styleUrl>#poly-FFD600-6201-77-nodesc</styleUrl>
        <Polygon>
          <outerBoundaryIs>
            <LinearRing>
              <tessellate>1</tessellate>
              <coordinates>
                0.8282989,52.2998617,0
                0.8304446,52.2999667,0
                0.8300799,52.3008852,0
                0.8298224,52.3012133,0
                0.8285778,52.302486,0
                0.8282774,52.3022367,0
                0.8279126,52.3025254,0
                0.8283203,52.3026697,0
                0.8275049,52.3032602,0
                0.8270543,52.3032077,0
                0.8271831,52.3028797,0
                0.8276766,52.3028797,0
                0.8282989,52.2998617,0
              </coordinates>
            </LinearRing>
          </outerBoundaryIs>
        </Polygon>
      </Placemark>
    </Folder>
  </Document>
</kml>
