<?xml version="1.0" encoding="UTF-8"?>
<kml xmlns="http://www.opengis.net/kml/2.2">
  <Document>
    <name>DuncanTerrace</name>
    <description/>
    <Style id="poly-FFD600-6401-77-nodesc-normal">
      <LineStyle>
        <color>ff00d6ff</color>
        <width>6.401</width>
      </LineStyle>
      <PolyStyle>
        <color>4d00d6ff</color>
        <fill>1</fill>
        <outline>1</outline>
      </PolyStyle>
      <BalloonStyle>
        <text><![CDATA[<h3>$[name]</h3>]]></text>
      </BalloonStyle>
    </Style>
    <Style id="poly-FFD600-6401-77-nodesc-highlight">
      <LineStyle>
        <color>ff00d6ff</color>
        <width>9.6015</width>
      </LineStyle>
      <PolyStyle>
        <color>4d00d6ff</color>
        <fill>1</fill>
        <outline>1</outline>
      </PolyStyle>
      <BalloonStyle>
        <text><![CDATA[<h3>$[name]</h3>]]></text>
      </BalloonStyle>
    </Style>
    <StyleMap id="poly-FFD600-6401-77-nodesc">
      <Pair>
        <key>normal</key>
        <styleUrl>#poly-FFD600-6401-77-nodesc-normal</styleUrl>
      </Pair>
      <Pair>
        <key>highlight</key>
        <styleUrl>#poly-FFD600-6401-77-nodesc-highlight</styleUrl>
      </Pair>
    </StyleMap>
    <Folder>
      <name>Untitled layer</name>
      <Placemark>
        <name>Polygon 1</name>
        <styleUrl>#poly-FFD600-6401-77-nodesc</styleUrl>
        <Polygon>
          <outerBoundaryIs>
            <LinearRing>
              <tessellate>1</tessellate>
              <coordinates>
                -0.1046182,51.5316991,0
                -0.1043339,51.5316157,0
                -0.1038994,51.5321129,0
                -0.1034327,51.5326869,0
                -0.1031483,51.5329172,0
                -0.1029606,51.5332375,0
                -0.1032771,51.533321,0
                -0.1046182,51.5316991,0
              </coordinates>
            </LinearRing>
          </outerBoundaryIs>
        </Polygon>
      </Placemark>
    </Folder>
  </Document>
</kml>
