<?xml version="1.0" encoding="UTF-8"?>
<kml xmlns="http://www.opengis.net/kml/2.2">
  <Document>
    <name>Hepplewilds</name>
    <description/>
    <Style id="poly-FFD600-5801-77-nodesc-normal">
      <LineStyle>
        <color>ff00d6ff</color>
        <width>5.801</width>
      </LineStyle>
      <PolyStyle>
        <color>4d00d6ff</color>
        <fill>1</fill>
        <outline>1</outline>
      </PolyStyle>
      <BalloonStyle>
        <text><![CDATA[<h3>$[name]</h3>]]></text>
      </BalloonStyle>
    </Style>
    <Style id="poly-FFD600-5801-77-nodesc-highlight">
      <LineStyle>
        <color>ff00d6ff</color>
        <width>8.7015</width>
      </LineStyle>
      <PolyStyle>
        <color>4d00d6ff</color>
        <fill>1</fill>
        <outline>1</outline>
      </PolyStyle>
      <BalloonStyle>
        <text><![CDATA[<h3>$[name]</h3>]]></text>
      </BalloonStyle>
    </Style>
    <StyleMap id="poly-FFD600-5801-77-nodesc">
      <Pair>
        <key>normal</key>
        <styleUrl>#poly-FFD600-5801-77-nodesc-normal</styleUrl>
      </Pair>
      <Pair>
        <key>highlight</key>
        <styleUrl>#poly-FFD600-5801-77-nodesc-highlight</styleUrl>
      </Pair>
    </StyleMap>
    <Folder>
      <name>Untitled layer</name>
      <Placemark>
        <name>Polygon 1</name>
        <styleUrl>#poly-FFD600-5801-77-nodesc</styleUrl>
        <MultiGeometry>
          <Polygon>
            <outerBoundaryIs>
              <LinearRing>
                <tessellate>1</tessellate>
                <coordinates>
                  -2.0149029,55.2980934,0
                  -2.0104599,55.2989595,0
                  -2.0059183,55.3001861,0
                  -2.0019848,55.3014672,0
                  -2.0057922,55.3040291,0
                  -2.0137504,55.3007479,0
                  -2.0149029,55.2980934,0
                </coordinates>
              </LinearRing>
            </outerBoundaryIs>
          </Polygon>
          <Polygon>
            <outerBoundaryIs>
              <LinearRing>
                <tessellate>1</tessellate>
                <coordinates>
                  -2.0149029,55.2980934,0
                  -2.0178939,55.2963018,0
                  -2.0214739,55.2981909,0
                  -2.0234837,55.2970824,0
                  -2.0223513,55.2934967,0
                  -2.0259224,55.2919933,0
                  -2.0275726,55.2936777,0
                  -2.0370536,55.2943076,0
                  -2.0415933,55.2904838,0
                  -2.0465521,55.2894811,0
                  -2.0506298,55.2857151,0
                  -2.0539723,55.2791593,0
                  -2.0579998,55.2765651,0
                  -2.062463,55.2744138,0
                  -2.0661537,55.2742671,0
                  -2.0666687,55.2718713,0
                  -2.0653812,55.2700132,0
                  -2.0634929,55.2711867,0
                  -2.061433,55.2704533,0
                  -2.0642654,55.2673237,0
                  -2.0543949,55.2584714,0
                  -2.0514766,55.2586671,0
                  -2.0424644,55.2526993,0
                  -2.0283947,55.2607734,0
                  -2.007967,55.269185,0
                  -1.9883976,55.2683048,0
                  -1.9786129,55.289522,0
                  -1.9932524,55.2860925,0
                  -1.9965629,55.2928285,0
                  -1.9959749,55.2957434,0
                  -1.9934257,55.2980549,0
                  -1.9948509,55.2995504,0
                  -1.9987315,55.298632,0
                  -2.0016867,55.299336,0
                  -2.0027904,55.2980074,0
                  -2.0060277,55.2971088,0
                  -2.0073509,55.2923788,0
                  -2.0079392,55.2969932,0
                  -2.0101455,55.2958615,0
                  -2.0149029,55.2980934,0
                </coordinates>
              </LinearRing>
            </outerBoundaryIs>
          </Polygon>
        </MultiGeometry>
      </Placemark>
    </Folder>
  </Document>
</kml>
