<?xml version="1.0" encoding="UTF-8"?>
<kml xmlns="http://www.opengis.net/kml/2.2">
  <Document>
    <name>MapleFarm</name>
    <description/>
    <Style id="poly-FFD600-6101-77-nodesc-normal">
      <LineStyle>
        <color>ff00d6ff</color>
        <width>6.101</width>
      </LineStyle>
      <PolyStyle>
        <color>4d00d6ff</color>
        <fill>1</fill>
        <outline>1</outline>
      </PolyStyle>
      <BalloonStyle>
        <text><![CDATA[<h3>$[name]</h3>]]></text>
      </BalloonStyle>
    </Style>
    <Style id="poly-FFD600-6101-77-nodesc-highlight">
      <LineStyle>
        <color>ff00d6ff</color>
        <width>9.1515</width>
      </LineStyle>
      <PolyStyle>
        <color>4d00d6ff</color>
        <fill>1</fill>
        <outline>1</outline>
      </PolyStyle>
      <BalloonStyle>
        <text><![CDATA[<h3>$[name]</h3>]]></text>
      </BalloonStyle>
    </Style>
    <StyleMap id="poly-FFD600-6101-77-nodesc">
      <Pair>
        <key>normal</key>
        <styleUrl>#poly-FFD600-6101-77-nodesc-normal</styleUrl>
      </Pair>
      <Pair>
        <key>highlight</key>
        <styleUrl>#poly-FFD600-6101-77-nodesc-highlight</styleUrl>
      </Pair>
    </StyleMap>
    <Folder>
      <name>Untitled layer</name>
      <Placemark>
        <name>Polygon 1</name>
        <styleUrl>#poly-FFD600-6101-77-nodesc</styleUrl>
        <Polygon>
          <outerBoundaryIs>
            <LinearRing>
              <tessellate>1</tessellate>
              <coordinates>
                -0.5469084,51.0835777,0
                -0.5460072,51.0823915,0
                -0.5454278,51.0815153,0
                -0.5439472,51.0818523,0
                -0.5429173,51.081731,0
                -0.5428314,51.0811648,0
                -0.5416942,51.0814749,0
                -0.54178,51.0819062,0
                -0.5414581,51.0822837,0
                -0.5412865,51.0827285,0
                -0.5407715,51.0828364,0
                -0.5404925,51.0831733,0
                -0.5406642,51.0835912,0
                -0.541265,51.0839012,0
                -0.5416727,51.0840765,0
                -0.541265,51.0843865,0
                -0.5416513,51.08471,0
                -0.5393338,51.0858826,0
                -0.5388188,51.0860444,0
                -0.5390334,51.086287,0
                -0.5394197,51.0861792,0
                -0.5405998,51.0876214,0
                -0.5413508,51.0875001,0
                -0.5419517,51.0859096,0
                -0.5423379,51.0854918,0
                -0.5428743,51.0851817,0
                -0.5432177,51.0852222,0
                -0.5440974,51.0845482,0
                -0.5451274,51.084346,0
                -0.5451059,51.0834564,0
                -0.5469084,51.0835777,0
              </coordinates>
            </LinearRing>
          </outerBoundaryIs>
        </Polygon>
      </Placemark>
    </Folder>
  </Document>
</kml>
