<?xml version="1.0" encoding="UTF-8"?>
<kml xmlns="http://www.opengis.net/kml/2.2">
  <Document>
    <name>NatureChainMeadows</name>
    <description/>
    <Style id="poly-FFD600-5201-77-nodesc-normal">
      <LineStyle>
        <color>ff00d6ff</color>
        <width>5.201</width>
      </LineStyle>
      <PolyStyle>
        <color>4d00d6ff</color>
        <fill>1</fill>
        <outline>1</outline>
      </PolyStyle>
      <BalloonStyle>
        <text><![CDATA[<h3>$[name]</h3>]]></text>
      </BalloonStyle>
    </Style>
    <Style id="poly-FFD600-5201-77-nodesc-highlight">
      <LineStyle>
        <color>ff00d6ff</color>
        <width>7.8015</width>
      </LineStyle>
      <PolyStyle>
        <color>4d00d6ff</color>
        <fill>1</fill>
        <outline>1</outline>
      </PolyStyle>
      <BalloonStyle>
        <text><![CDATA[<h3>$[name]</h3>]]></text>
      </BalloonStyle>
    </Style>
    <StyleMap id="poly-FFD600-5201-77-nodesc">
      <Pair>
        <key>normal</key>
        <styleUrl>#poly-FFD600-5201-77-nodesc-normal</styleUrl>
      </Pair>
      <Pair>
        <key>highlight</key>
        <styleUrl>#poly-FFD600-5201-77-nodesc-highlight</styleUrl>
      </Pair>
    </StyleMap>
    <Style id="poly-FFD600-5301-77-nodesc-normal">
      <LineStyle>
        <color>ff00d6ff</color>
        <width>5.301</width>
      </LineStyle>
      <PolyStyle>
        <color>4d00d6ff</color>
        <fill>1</fill>
        <outline>1</outline>
      </PolyStyle>
      <BalloonStyle>
        <text><![CDATA[<h3>$[name]</h3>]]></text>
      </BalloonStyle>
    </Style>
    <Style id="poly-FFD600-5301-77-nodesc-highlight">
      <LineStyle>
        <color>ff00d6ff</color>
        <width>7.9515</width>
      </LineStyle>
      <PolyStyle>
        <color>4d00d6ff</color>
        <fill>1</fill>
        <outline>1</outline>
      </PolyStyle>
      <BalloonStyle>
        <text><![CDATA[<h3>$[name]</h3>]]></text>
      </BalloonStyle>
    </Style>
    <StyleMap id="poly-FFD600-5301-77-nodesc">
      <Pair>
        <key>normal</key>
        <styleUrl>#poly-FFD600-5301-77-nodesc-normal</styleUrl>
      </Pair>
      <Pair>
        <key>highlight</key>
        <styleUrl>#poly-FFD600-5301-77-nodesc-highlight</styleUrl>
      </Pair>
    </StyleMap>
    <Style id="poly-FFD600-5601-77-nodesc-normal">
      <LineStyle>
        <color>ff00d6ff</color>
        <width>5.601</width>
      </LineStyle>
      <PolyStyle>
        <color>4d00d6ff</color>
        <fill>1</fill>
        <outline>1</outline>
      </PolyStyle>
      <BalloonStyle>
        <text><![CDATA[<h3>$[name]</h3>]]></text>
      </BalloonStyle>
    </Style>
    <Style id="poly-FFD600-5601-77-nodesc-highlight">
      <LineStyle>
        <color>ff00d6ff</color>
        <width>8.4015</width>
      </LineStyle>
      <PolyStyle>
        <color>4d00d6ff</color>
        <fill>1</fill>
        <outline>1</outline>
      </PolyStyle>
      <BalloonStyle>
        <text><![CDATA[<h3>$[name]</h3>]]></text>
      </BalloonStyle>
    </Style>
    <StyleMap id="poly-FFD600-5601-77-nodesc">
      <Pair>
        <key>normal</key>
        <styleUrl>#poly-FFD600-5601-77-nodesc-normal</styleUrl>
      </Pair>
      <Pair>
        <key>highlight</key>
        <styleUrl>#poly-FFD600-5601-77-nodesc-highlight</styleUrl>
      </Pair>
    </StyleMap>
    <Style id="poly-FFD600-6001-77-nodesc-normal">
      <LineStyle>
        <color>ff00d6ff</color>
        <width>6.001</width>
      </LineStyle>
      <PolyStyle>
        <color>4d00d6ff</color>
        <fill>1</fill>
        <outline>1</outline>
      </PolyStyle>
      <BalloonStyle>
        <text><![CDATA[<h3>$[name]</h3>]]></text>
      </BalloonStyle>
    </Style>
    <Style id="poly-FFD600-6001-77-nodesc-highlight">
      <LineStyle>
        <color>ff00d6ff</color>
        <width>9.0015</width>
      </LineStyle>
      <PolyStyle>
        <color>4d00d6ff</color>
        <fill>1</fill>
        <outline>1</outline>
      </PolyStyle>
      <BalloonStyle>
        <text><![CDATA[<h3>$[name]</h3>]]></text>
      </BalloonStyle>
    </Style>
    <StyleMap id="poly-FFD600-6001-77-nodesc">
      <Pair>
        <key>normal</key>
        <styleUrl>#poly-FFD600-6001-77-nodesc-normal</styleUrl>
      </Pair>
      <Pair>
        <key>highlight</key>
        <styleUrl>#poly-FFD600-6001-77-nodesc-highlight</styleUrl>
      </Pair>
    </StyleMap>
    <Style id="poly-FFD600-6301-77-nodesc-normal">
      <LineStyle>
        <color>ff00d6ff</color>
        <width>6.301</width>
      </LineStyle>
      <PolyStyle>
        <color>4d00d6ff</color>
        <fill>1</fill>
        <outline>1</outline>
      </PolyStyle>
      <BalloonStyle>
        <text><![CDATA[<h3>$[name]</h3>]]></text>
      </BalloonStyle>
    </Style>
    <Style id="poly-FFD600-6301-77-nodesc-highlight">
      <LineStyle>
        <color>ff00d6ff</color>
        <width>9.4515</width>
      </LineStyle>
      <PolyStyle>
        <color>4d00d6ff</color>
        <fill>1</fill>
        <outline>1</outline>
      </PolyStyle>
      <BalloonStyle>
        <text><![CDATA[<h3>$[name]</h3>]]></text>
      </BalloonStyle>
    </Style>
    <StyleMap id="poly-FFD600-6301-77-nodesc">
      <Pair>
        <key>normal</key>
        <styleUrl>#poly-FFD600-6301-77-nodesc-normal</styleUrl>
      </Pair>
      <Pair>
        <key>highlight</key>
        <styleUrl>#poly-FFD600-6301-77-nodesc-highlight</styleUrl>
      </Pair>
    </StyleMap>
    <Folder>
      <name>Untitled layer</name>
      <Placemark>
        <name>Polygon 1</name>
        <styleUrl>#poly-FFD600-5301-77-nodesc</styleUrl>
        <Polygon>
          <outerBoundaryIs>
            <LinearRing>
              <tessellate>1</tessellate>
              <coordinates>
                -2.3088655,51.3397501,0
                -2.3107055,51.3400785,0
                -2.3109576,51.3397635,0
                -2.3103246,51.338919,0
                -2.3084363,51.3385437,0
                -2.3060867,51.3398171,0
                -2.3064622,51.3408761,0
                -2.3078784,51.3406348,0
                -2.3088655,51.3397501,0
              </coordinates>
            </LinearRing>
          </outerBoundaryIs>
        </Polygon>
      </Placemark>
      <Placemark>
        <name>Polygon 2</name>
        <styleUrl>#poly-FFD600-6001-77-nodesc</styleUrl>
        <Polygon>
          <outerBoundaryIs>
            <LinearRing>
              <tessellate>1</tessellate>
              <coordinates>
                -2.3107967,51.3438517,0
                -2.3077497,51.3431815,0
                -2.307063,51.34353,0
                -2.3092088,51.3437445,0
                -2.3104533,51.3444415,0
                -2.3107967,51.3438517,0
              </coordinates>
            </LinearRing>
          </outerBoundaryIs>
        </Polygon>
      </Placemark>
      <Placemark>
        <name>Polygon 3</name>
        <styleUrl>#poly-FFD600-5201-77-nodesc</styleUrl>
        <Polygon>
          <outerBoundaryIs>
            <LinearRing>
              <tessellate>1</tessellate>
              <coordinates>
                -2.3138355,51.3374492,0
                -2.3135994,51.3372146,0
                -2.3125587,51.3376168,0
                -2.3114,51.3375632,0
                -2.3113034,51.3383742,0
                -2.3122583,51.33822,0
                -2.3138355,51.3374492,0
              </coordinates>
            </LinearRing>
          </outerBoundaryIs>
        </Polygon>
      </Placemark>
      <Placemark>
        <name>Polygon 4</name>
        <styleUrl>#poly-FFD600-5601-77-nodesc</styleUrl>
        <Polygon>
          <outerBoundaryIs>
            <LinearRing>
              <tessellate>1</tessellate>
              <coordinates>
                -2.3142431,51.3369022,0
                -2.3139106,51.3360174,0
                -2.3137282,51.3361113,0
                -2.3135672,51.3359638,0
                -2.3128055,51.3365805,0
                -2.3131166,51.3367614,0
                -2.3128269,51.3370296,0
                -2.3130522,51.3373312,0
                -2.313299,51.3373044,0
                -2.3135029,51.3371435,0
                -2.3142431,51.3369022,0
              </coordinates>
            </LinearRing>
          </outerBoundaryIs>
        </Polygon>
      </Placemark>
      <Placemark>
        <name>Polygon 5</name>
        <styleUrl>#poly-FFD600-6301-77-nodesc</styleUrl>
        <Polygon>
          <outerBoundaryIs>
            <LinearRing>
              <tessellate>1</tessellate>
              <coordinates>
                -2.3134716,51.3548301,0
                -2.3138578,51.3548636,0
                -2.3143513,51.3550512,0
                -2.3143728,51.3552187,0
                -2.3166795,51.3558485,0
                -2.3168082,51.3553594,0
                -2.3145874,51.3546626,0
                -2.314169,51.3538384,0
                -2.3134716,51.3548301,0
              </coordinates>
            </LinearRing>
          </outerBoundaryIs>
        </Polygon>
      </Placemark>
    </Folder>
  </Document>
</kml>
