<?xml version="1.0" encoding="UTF-8"?>
<kml xmlns="http://www.opengis.net/kml/2.2">
  <Document>
    <name>RyeMeadow</name>
    <description/>
    <Style id="poly-FFD600-7001-77-nodesc-normal">
      <LineStyle>
        <color>ff00d6ff</color>
        <width>7.001</width>
      </LineStyle>
      <PolyStyle>
        <color>4d00d6ff</color>
        <fill>1</fill>
        <outline>1</outline>
      </PolyStyle>
      <BalloonStyle>
        <text><![CDATA[<h3>$[name]</h3>]]></text>
      </BalloonStyle>
    </Style>
    <Style id="poly-FFD600-7001-77-nodesc-highlight">
      <LineStyle>
        <color>ff00d6ff</color>
        <width>10.5015</width>
      </LineStyle>
      <PolyStyle>
        <color>4d00d6ff</color>
        <fill>1</fill>
        <outline>1</outline>
      </PolyStyle>
      <BalloonStyle>
        <text><![CDATA[<h3>$[name]</h3>]]></text>
      </BalloonStyle>
    </Style>
    <StyleMap id="poly-FFD600-7001-77-nodesc">
      <Pair>
        <key>normal</key>
        <styleUrl>#poly-FFD600-7001-77-nodesc-normal</styleUrl>
      </Pair>
      <Pair>
        <key>highlight</key>
        <styleUrl>#poly-FFD600-7001-77-nodesc-highlight</styleUrl>
      </Pair>
    </StyleMap>
    <Folder>
      <name>Untitled layer</name>
      <Placemark>
        <name>Polygon 2</name>
        <styleUrl>#poly-FFD600-7001-77-nodesc</styleUrl>
        <Polygon>
          <outerBoundaryIs>
            <LinearRing>
              <tessellate>1</tessellate>
              <coordinates>
                0.6738059,50.9538522,0
                0.6745677,50.9541057,0
                0.6748574,50.9543929,0
                0.675308,50.9546632,0
                0.6734304,50.9549302,0
                0.6736343,50.954545,0
                0.6738059,50.9538522,0
              </coordinates>
            </LinearRing>
          </outerBoundaryIs>
        </Polygon>
      </Placemark>
    </Folder>
  </Document>
</kml>
